COMMENT,ORIGINATOR,NORAD_CAT_ID,OBJECT_NAME,OBJECT_TYPE,CLASSIFICATION_TYPE,INTLDES,EPOCH,EPOCH_MICROSECONDS,MEAN_MOTION,ECCENTRICITY,INCLINATION,RA_OF_ASC_NODE,ARG_OF_PERICENTER,MEAN_ANOMALY,EPHEMERIS_TYPE,ELEMENT_SET_NO,REV_AT_EPOCH,BSTAR,MEAN_MOTION_DOT,MEAN_MOTION_DDOT,FILE,TLE_LINE0,TLE_LINE1,TLE_LINE2,OBJECT_ID,OBJECT_NUMBER,SEMIMAJOR_AXIS,PERIOD,APOGEE,PERIGEE,DECAYED,date
GENERATED VIA SPACETRACK.ORG API,18 SPCS,48883,SPACEBEE-100,PAYLOAD,U,21059E,2023/2/10 21:48,961600,15.22561193,0.0008064,97.5775,176.5966,352.1214,7.9894,0,999,9011,0.0017054,0.00039726,0,3785326,0 SPACEBEE-100,1 48883U 21059E   23041.90850650  .00039726  00000-0  17054-2 0  9997,2 48883  97.5775 176.5966 0008064 352.1214   7.9894 15.22561193 90112,2021-059E,48883,6876.255,94.577,503.665,492.575,0,2023/4/3
GENERATED VIA SPACETRACK.ORG API,18 SPCS,48883,SPACEBEE-100,PAYLOAD,U,21059E,2023/2/10 21:48,961600,15.22561193,0.0008064,97.5775,176.5966,352.1214,7.9894,0,999,9011,0.0017054,0.00039726,0,3786144,0 SPACEBEE-100,1 48883U 21059E   23041.90850650  .00039726  00000-0  17054-2 0  9997,2 48883  97.5775 176.5966 0008064 352.1214   7.9894 15.22561193 90112,2021-059E,48883,6876.255,94.577,503.665,492.575,0,2023/4/4
GENERATED VIA SPACETRACK.ORG API,18 SPCS,48883,SPACEBEE-100,PAYLOAD,U,21059E,2023/2/11 8:50,192960,15.22604656,0.000809,97.5775,177.0606,350.6908,9.4176,0,999,9018,0.0018752,0.00043769,0,3786440,0 SPACEBEE-100,1 48883U 21059E   23042.36854390  .00043769  00000-0  18752-2 0  9991,2 48883  97.5775 177.0606 0008090 350.6908   9.4176 15.22604656 90180,2021-059E,48883,6876.125,94.575,503.552,492.427,0,2023/4/5
GENERATED VIA SPACETRACK.ORG API,18 SPCS,48883,SPACEBEE-100,PAYLOAD,U,21059E,2023/2/11 8:50,192960,15.22604656,0.000809,97.5775,177.0606,350.6908,9.4176,0,999,9018,0.0018752,0.00043769,0,3786577,0 SPACEBEE-100,1 48883U 21059E   23042.36854390  .00043769  00000-0  18752-2 0  9991,2 48883  97.5775 177.0606 0008090 350.6908   9.4176 15.22604656 90180,2021-059E,48883,6876.125,94.575,503.552,492.427,0,2023/4/6
GENERATED VIA SPACETRACK.ORG API,18 SPCS,48883,SPACEBEE-100,PAYLOAD,U,21059E,2023/2/12 14:48,460704,15.22708605,0.0008001,97.577,178.3193,345.6076,14.4931,0,999,9037,0.0018253,0.00042726,0,3787601,0 SPACEBEE-100,1 48883U 21059E   23043.61715811  .00042726  00000-0  18253-2 0  9992,2 48883  97.5770 178.3193 0008001 345.6076  14.4931 15.22708605 90377,2021-059E,48883,6875.812,94.568,503.178,492.175,0,2023/4/7
GENERATED VIA SPACETRACK.ORG API,18 SPCS,48883,SPACEBEE-100,PAYLOAD,U,21059E,2023/2/12 14:48,460704,15.22708605,0.0008001,97.577,178.3193,345.6076,14.4931,0,999,9037,0.0018253,0.00042726,0,3787692,0 SPACEBEE-100,1 48883U 21059E   23043.61715811  .00042726  00000-0  18253-2 0  9992,2 48883  97.5770 178.3193 0008001 345.6076  14.4931 15.22708605 90377,2021-059E,48883,6875.812,94.568,503.178,492.175,0,2023/4/8
GENERATED VIA SPACETRACK.ORG API,18 SPCS,48883,SPACEBEE-100,PAYLOAD,U,21059E,2023/2/13 14:28,65472,15.22783153,0.0008052,97.5767,179.3138,341.7314,18.3631,0,999,9052,0.0016259,0.00038111,0,3789366,0 SPACEBEE-100,1 48883U 21059E   23044.60284798  .00038111  00000-0  16259-2 0  9994,2 48883  97.5767 179.3138 0008052 341.7314  18.3631 15.22783153 90529,2021-059E,48883,6875.587,94.564,502.988,491.916,0,2023/4/9
GENERATED VIA SPACETRACK.ORG API,18 SPCS,48883,SPACEBEE-100,PAYLOAD,U,21059E,2023/2/13 14:28,65472,15.22783153,0.0008052,97.5767,179.3138,341.7314,18.3631,0,999,9052,0.0016259,0.00038111,0,3789688,0 SPACEBEE-100,1 48883U 21059E   23044.60284798  .00038111  00000-0  16259-2 0  9994,2 48883  97.5767 179.3138 0008052 341.7314  18.3631 15.22783153 90529,2021-059E,48883,6875.587,94.564,502.988,491.916,0,2023/4/10
GENERATED VIA SPACETRACK.ORG API,18 SPCS,48883,SPACEBEE-100,PAYLOAD,U,21059E,2023/2/13 22:21,1472,15.22809399,0.0008066,97.5766,179.6454,340.6377,19.4552,0,999,9057,0.0016478,0.00038658,0,3791349,0 SPACEBEE-100,1 48883U 21059E   23044.93140048  .00038658  00000-0  16478-2 0  9998,2 48883  97.5766 179.6454 0008066 340.6377  19.4552 15.22809399 90574,2021-059E,48883,6875.508,94.562,502.919,491.827,0,2023/4/11
GENERATED VIA SPACETRACK.ORG API,18 SPCS,48883,SPACEBEE-100,PAYLOAD,U,21059E,2023/2/15 2:44,216128,15.22897116,0.0008072,97.5767,180.8385,336.6391,23.4477,0,999,9075,0.0016083,0.00037823,0,3792510,0 SPACEBEE-100,1 48883U 21059E   23046.11414602  .00037823  00000-0  16083-2 0  9995,2 48883  97.5767 180.8385 0008072 336.6391  23.4477 15.22897116 90755,2021-059E,48883,6875.244,94.557,502.659,491.56,0,2023/4/12
GENERATED VIA SPACETRACK.ORG API,18 SPCS,48883,SPACEBEE-100,PAYLOAD,U,21059E,2023/2/15 7:28,155168,15.22914974,0.0008054,97.5767,181.0374,336.2503,23.836,0,999,9078,0.0016953,0.00039905,0,3793706,0 SPACEBEE-100,1 48883U 21059E   23046.31126337  .00039905  00000-0  16953-2 0  9991,2 48883  97.5767 181.0374 0008054 336.2503  23.8360 15.22914974 90787,2021-059E,48883,6875.191,94.556,502.593,491.518,0,2023/4/13
GENERATED VIA SPACETRACK.ORG API,18 SPCS,48883,SPACEBEE-100,PAYLOAD,U,21059E,2023/2/15 21:39,782560,15.22970897,0.0008034,97.5768,181.6341,334.6359,25.4482,0,999,9087,0.0019885,0.00046941,0,3795153,0 SPACEBEE-100,1 48883U 21059E   23046.90260165  .00046941  00000-0  19885-2 0  9999,2 48883  97.5768 181.6341 0008034 334.6359  25.4482 15.22970897 90876,2021-059E,48883,6875.022,94.552,502.411,491.364,0,2023/4/14
GENERATED VIA SPACETRACK.ORG API,18 SPCS,48883,SPACEBEE-100,PAYLOAD,U,21059E,2023/2/16 7:07,782304,15.2300804,0.0008011,97.5767,182.0319,333.4101,26.6724,0,999,9093,0.0019793,0.00046773,0,3796169,0 SPACEBEE-100,1 48883U 21059E   23047.29681461  .00046773  00000-0  19793-2 0  9999,2 48883  97.5767 182.0319 0008011 333.4101  26.6724 15.23008040 90934,2021-059E,48883,6874.91,94.55,502.283,491.268,0,2023/4/15
GENERATED VIA SPACETRACK.ORG API,18 SPCS,48883,SPACEBEE-100,PAYLOAD,U,21059E,2023/2/16 15:00,495072,15.23038469,0.0007978,97.5766,182.3634,332.3161,27.7649,0,999,9098,0.0019494,0.00046103,0,3798293,0 SPACEBEE-100,1 48883U 21059E   23047.62531823  .00046103  00000-0  19494-2 0  9997,2 48883  97.5766 182.3634 0007978 332.3161  27.7649 15.23038469 90982,2021-059E,48883,6874.819,94.548,502.169,491.199,0,2023/4/16
GENERATED VIA SPACETRACK.ORG API,18 SPCS,48883,SPACEBEE-100,PAYLOAD,U,21059E,2023/2/16 21:18,240544,15.23062218,0.0007969,97.5768,182.6286,331.2745,28.8052,0,999,9102,0.0018434,0.00043608,0,3799178,0 SPACEBEE-100,1 48883U 21059E   23047.88811621  .00043608  00000-0  18434-2 0  9992,2 48883  97.5768 182.6286 0007969 331.2745  28.8052 15.23062218 91021,2021-059E,48883,6874.747,94.546,502.091,491.134,0,2023/4/17
GENERATED VIA SPACETRACK.ORG API,18 SPCS,48883,SPACEBEE-100,PAYLOAD,U,21059E,2023/2/17 8:21,598304,15.23093234,0.000803,97.5764,183.0926,329.1622,30.9142,0,999,9109,0.0014718,0.00034794,0,3801913,0 SPACEBEE-100,1 48883U 21059E   23048.34800461  .00034794  00000-0  14718-2 0  9991,2 48883  97.5764 183.0926 0008030 329.1622  30.9142 15.23093234 91096,2021-059E,48883,6874.654,94.544,502.039,490.999,0,2023/4/18
GENERATED VIA SPACETRACK.ORG API,18 SPCS,48883,SPACEBEE-100,PAYLOAD,U,21059E,2023/2/17 8:21,598304,15.23093234,0.000803,97.5764,183.0926,329.1622,30.9142,0,999,9109,0.0014718,0.00034794,0,3802730,0 SPACEBEE-100,1 48883U 21059E   23048.34800461  .00034794  00000-0  14718-2 0  9991,2 48883  97.5764 183.0926 0008030 329.1622  30.9142 15.23093234 91096,2021-059E,48883,6874.654,94.544,502.039,490.999,0,2023/4/19
GENERATED VIA SPACETRACK.ORG API,18 SPCS,48883,SPACEBEE-100,PAYLOAD,U,21059E,2023/2/17 20:57,304224,15.23126358,0.0008093,97.5767,183.623,327.1697,32.9035,0,999,9117,0.0012124,0.00028653,0,3804075,0 SPACEBEE-100,1 48883U 21059E   23048.87357991  .00028653  00000-0  12124-2 0  9990,2 48883  97.5767 183.6230 0008093 327.1697  32.9035 15.23126358 91178,2021-059E,48883,6874.554,94.542,501.983,490.856,0,2023/4/20
GENERATED VIA SPACETRACK.ORG API,18 SPCS,48883,SPACEBEE-100,PAYLOAD,U,21059E,2023/2/18 8:00,70496,15.23152754,0.0008074,97.577,184.0872,325.5251,34.5461,0,999,9124,0.0012013,0.00028411,0,3807124,0 SPACEBEE-100,1 48883U 21059E   23049.33344989  .00028411  00000-0  12013-2 0  9994,2 48883  97.5770 184.0872 0008074 325.5251  34.5461 15.23152754 91244,2021-059E,48883,6874.475,94.541,501.89,490.79,0,2023/4/21
GENERATED VIA SPACETRACK.ORG API,18 SPCS,48883,SPACEBEE-100,PAYLOAD,U,21059E,2023/2/18 19:02,180128,15.23178805,0.0008074,97.5772,184.5515,323.8024,36.2665,0,999,9131,0.0012055,0.00028533,0,3807795,0 SPACEBEE-100,1 48883U 21059E   23049.79331227  .00028533  00000-0  12055-2 0  9996,2 48883  97.5772 184.5515 0008074 323.8024  36.2665 15.23178805 91312,2021-059E,48883,6874.397,94.539,501.812,490.711,0,2023/4/22
GENERATED VIA SPACETRACK.ORG API,18 SPCS,48883,SPACEBEE-100,PAYLOAD,U,21059E,2023/2/19 7:39,459072,15.2320912,0.0008089,97.5775,185.082,321.996,38.0704,0,999,9139,0.0012494,0.00029606,0,3811610,0 SPACEBEE-100,1 48883U 21059E   23050.31885948  .00029606  00000-0  12494-2 0  9999,2 48883  97.5775 185.0820 0008089 321.9960  38.0704 15.23209120 91391,2021-059E,48883,6874.305,94.537,501.731,490.61,0,2023/4/23
GENERATED VIA SPACETRACK.ORG API,18 SPCS,48883,SPACEBEE-100,PAYLOAD,U,21059E,2023/2/19 21:50,652448,15.23239388,0.0008023,97.5781,185.6791,319.8407,40.2236,0,999,9148,0.0011043,0.0002617,0,3812804,0 SPACEBEE-100,1 48883U 21059E   23050.91008857  .00026170  00000-0  11043-2 0  9993,2 48883  97.5781 185.6791 0008023 319.8407  40.2236 15.23239388 91485,2021-059E,48883,6874.214,94.535,501.594,490.564,0,2023/4/24
GENERATED VIA SPACETRACK.ORG API,18 SPCS,48883,SPACEBEE-100,PAYLOAD,U,21059E,2023/2/20 7:18,808960,15.23262512,0.0008037,97.5782,186.0771,318.7822,41.2807,0,999,9154,0.0011658,0.00027656,0,3815761,0 SPACEBEE-100,1 48883U 21059E   23051.30423390  .00027656  00000-0  11658-2 0  9992,2 48883  97.5782 186.0771 0008037 318.7822  41.2807 15.23262512 91540,2021-059E,48883,6874.145,94.534,501.534,490.485,0,2023/4/25
